NORAD_CAT_ID,OBJECT_NAME,OBJECT_TYPE,EPOCH,MEAN_MOTION,ECCENTRICITY,INCLINATION,RA_OF_ASC_NODE,ARG_OF_PERICENTER,MEAN_ANOMALY,BSTAR,MEAN_MOTION_DOT,MEAN_MOTION_DDOT,TLE_LINE0,TLE_LINE1,TLE_LINE2,SEMIMAJOR_AXIS,PERIOD,APOGEE,PERIGEE,DECAYED
52363.0,STARLINK-3830,PAYLOAD,2022-08-17 06:00:02,15.08859304,0.0001654,53.2154,277.0052,48.594,356.4762,-0.0016228999999999,-0.00026037,0.0,0 STARLINK-3830,1 52363U 22045AJ  22229.25002315 -.00026037  00000-0 -16229-2 0  9999,2 52363  53.2154 277.0052 0001654  48.5940 356.4762 15.08859304 19466,6917.821,95.436,540.831,538.5419999999998,0.0
52363.0,STARLINK-3830,PAYLOAD,2022-08-17 16:00:00,15.08843438,0.0001807,53.2148,275.1355,42.9019,106.6089,0.00072926,0.00011338,0.0,0 STARLINK-3830,1 52363U 22045AJ  22229.66667824  .00011338  00000-0  72926-3 0  9999,2 52363  53.2148 275.1355 0001807  42.9019 106.6089 15.08843438 19524,6917.87,95.437,540.985,538.485,0.0
52363.0,STARLINK-3830,PAYLOAD,2022-08-18 08:00:01,15.08840174,0.0001865999999999,53.2149,272.1423,49.5884,123.1315,-0.0016323,-0.00026173,0.0,0 STARLINK-3830,1 52363U 22045AJ  22230.33334491 -.00026173  00000-0 -16323-2 0  9999,2 52363  53.2149 272.1423 0001866  49.5884 123.1315 15.08840174 19627,6917.88,95.438,541.036,538.4540000000002,0.0
52363.0,STARLINK-3830,PAYLOAD,2022-08-18 14:00:01,15.0881275,0.000194,53.2148,271.0206,45.7991,45.6186,0.0028974,0.00046092,0.0,0 STARLINK-3830,1 52363U 22045AJ  22230.58334491  .00046092  00000-0  28974-2 0  9991,2 52363  53.2148 271.0206 0001940  45.7991  45.6186 15.08812750  1302,6917.964,95.439,541.1709999999998,538.487,0.0
52363.0,STARLINK-3830,PAYLOAD,2022-08-18 22:00:00,15.08822523,0.0001781999999999,53.2148,269.5224,50.6692,52.338,0.0019025,0.00030106,0.0,0 STARLINK-3830,1 52363U 22045AJ  22230.91667824  .00030106  00000-0  19025-2 0  9993,2 52363  53.2148 269.5224 0001782  50.6692  52.3380 15.08822523 19715,6917.934,95.439,541.0319999999998,538.566,0.0
52363.0,STARLINK-3830,PAYLOAD,2022-08-19 14:00:01,15.08808561,0.0001942,53.2147,266.5312,43.4557,82.7452,0.0021101999999999,0.00033427,0.0,0 STARLINK-3830,1 52363U 22045AJ  22231.58334491  .00033427  00000-0  21102-2 0  9996,2 52363  53.2147 266.5312 0001942  43.4557  82.7452 15.08808561  1306,6917.976,95.44,541.185,538.498,0.0
52363.0,STARLINK-3830,PAYLOAD,2022-08-19 16:00:00,15.08829671,0.000192,53.2147,266.1567,44.0477,175.0404,-0.00046071,-7.611e-05,0.0,0 STARLINK-3830,1 52363U 22045AJ  22231.66667824 -.00007611  00000-0 -46071-3 0  9995,2 52363  53.2147 266.1567 0001920  44.0477 175.0404 15.08829671 19822,6917.9119999999975,95.438,541.105,538.4490000000002,0.0
52363.0,STARLINK-3830,PAYLOAD,2022-08-19 22:00:00,15.08806668,0.0001784,53.2149,265.0331,48.0302,89.7484,0.0021114,0.00033444,0.0,0 STARLINK-3830,1 52363U 22045AJ  22231.91667824  .00033444  00000-0  21114-2 0  9994,2 52363  53.2149 265.0331 0001784  48.0302  89.7484 15.08806668  1304,6917.982,95.44,541.081,538.613,0.0
52363.0,STARLINK-3830,PAYLOAD,2022-08-20 14:00:01,15.08818767,0.0002045999999999,53.2149,262.04200000000003,43.6373,117.2971,0.0021636999999999,0.00034296,0.0,0 STARLINK-3830,1 52363U 22045AJ  22232.58334491  .00034296  00000-0  21637-2 0  9995,2 52363  53.2149 262.0420 0002046  43.6373 117.2971 15.08818767  1302,6917.945,95.439,541.226,538.395,0.0
52363.0,STARLINK-3830,PAYLOAD,2022-08-20 22:00:00,15.08816426,0.000188,53.2152,260.5439,48.301,124.2249,0.0023066,0.00036589,0.0,0 STARLINK-3830,1 52363U 22045AJ  22232.91667824  .00036589  00000-0  23066-2 0  9996,2 52363  53.2152 260.5439 0001880  48.3010 124.2249 15.08816426 20019,6917.9519999999975,95.439,541.118,538.5169999999998,0.0
52363.0,STARLINK-3830,PAYLOAD,2022-08-21 14:00:01,15.08840407,0.0002103,53.2152,257.5528,44.0018,151.7024,0.00023046,3.382e-05,0.0,0 STARLINK-3830,1 52363U 22045AJ  22233.58334491  .00003382  00000-0  23046-3 0  9995,2 52363  53.2152 257.5528 0002103  44.0018 151.7024 15.08840407  1307,6917.879,95.438,541.1990000000002,538.289,0.0
52363.0,STARLINK-3830,PAYLOAD,2022-08-21 22:00:00,15.08808145,0.0001885,53.2154,256.0547,47.4196,159.8933,0.0014254,0.0002245,0.0,0 STARLINK-3830,1 52363U 22045AJ  22233.91667824  .00022450  00000-0  14254-2 0  9998,2 52363  53.2154 256.0547 0001885  47.4196 159.8933 15.08808145  1305,6917.978,95.44,541.1469999999998,538.539,0.0
52363.0,STARLINK-3830,PAYLOAD,2022-08-22 06:00:00,15.08833981,0.0001992,53.2155,254.5595,46.4171,172.4618,-0.0015079,-0.00024203,0.0,0 STARLINK-3830,1 52363U 22045AJ  22234.25001157 -.00024203  00000-0 -15079-2 0  9993,2 52363  53.2155 254.5595 0001992  46.4171 172.4618 15.08833981 20211,6917.899,95.438,541.1419999999998,538.386,0.0
52363.0,STARLINK-3830,PAYLOAD,2022-08-22 12:00:00,15.08799859,0.0002089999999999,53.2153,253.438,42.9496,94.6187,0.0029741,0.00047311,0.0,0 STARLINK-3830,1 52363U 22045AJ  22234.50001157  .00047311  00000-0  29741-2 0  9995,2 52363  53.2153 253.4380 0002090  42.9496  94.6187 15.08799859  1300,6918.003000000002,95.44,541.314,538.422,0.0
52363.0,STARLINK-3830,PAYLOAD,2022-08-22 22:00:00,15.08803582,0.0001899999999999,53.2153,251.5656,48.2922,193.7454,0.002583,0.00041019,0.0,0 STARLINK-3830,1 52363U 22045AJ  22234.91667824  .00041019  00000-0  25830-2 0  9993,2 52363  53.2153 251.5656 0001900  48.2922 193.7454 15.08803582 20316,6917.9919999999975,95.44,541.1709999999998,538.5419999999998,0.0
52363.0,STARLINK-3830,PAYLOAD,2022-08-23 14:00:01,15.08832407,0.0002082,53.2148,248.5745,44.1554,221.0313,-0.0002186,-3.765e-05,0.0,0 STARLINK-3830,1 52363U 22045AJ  22235.58334491 -.00003765  00000-0 -21860-3 0  9996,2 52363  53.2148 248.5745 0002082  44.1554 221.0313 15.08832407  1308,6917.904,95.438,541.2090000000002,538.328,0.0
52363.0,STARLINK-3830,PAYLOAD,2022-08-23 22:00:01,15.08807359,0.0001915,53.2148,247.0765,49.9115,226.93,0.0027023,0.00042943,0.0,0 STARLINK-3830,1 52363U 22045AJ  22235.91668981  .00042943  00000-0  27023-2 0  9992,2 52363  53.2148 247.0765 0001915  49.9115 226.9300 15.08807359  1302,6917.98,95.44,541.17,538.52,0.0
52363.0,STARLINK-3830,PAYLOAD,2022-08-24 14:00:01,15.08840006,0.0002092,53.2152,244.0853,45.5296,254.4062,-0.0009031,-0.00014633,0.0,0 STARLINK-3830,1 52363U 22045AJ  22236.58334491 -.00014633  00000-0 -90310-3 0  9999,2 52363  53.2152 244.0853 0002092  45.5296 254.4062 15.08840006  1308,6917.88,95.438,541.193,538.298,0.0
52363.0,STARLINK-3830,PAYLOAD,2022-08-24 22:00:00,15.08810189,0.0001952,53.2161,242.5874,51.8961,259.6364,0.0027451999999999,0.00043637,0.0,0 STARLINK-3830,1 52363U 22045AJ  22236.91667824  .00043637  00000-0  27452-2 0  9995,2 52363  53.2161 242.5874 0001952  51.8961 259.6364 15.08810189  1308,6917.972,95.439,541.187,538.486,0.0
52363.0,STARLINK-3830,PAYLOAD,2022-08-25 14:00:01,15.08844308,0.0002126999999999,53.2155,239.5961,47.0621,287.6302,-0.0013375,-0.00021515,0.0,0 STARLINK-3830,1 52363U 22045AJ  22237.58334491 -.00021515  00000-0 -13375-2 0  9992,2 52363  53.2155 239.5961 0002127  47.0621 287.6302 15.08844308  1302,6917.8669999999975,95.437,541.2040000000002,538.261,0.0
52363.0,STARLINK-3830,PAYLOAD,2022-08-25 22:00:00,15.08812439,0.0002015,53.2155,238.0982,53.5068,292.7835,0.0027274,0.00043354,0.0,0 STARLINK-3830,1 52363U 22045AJ  22237.91667824  .00043354  00000-0  27274-2 0  9994,2 52363  53.2155 238.0982 0002015  53.5068 292.7835 15.08812439  1300,6917.965,95.439,541.224,538.436,0.0
52363.0,STARLINK-3830,PAYLOAD,2022-08-26 06:00:00,15.08843255,0.0002191999999999,53.2156,236.6034,50.2384,307.6339,-0.0013527,-0.00021755,0.0,0 STARLINK-3830,1 52363U 22045AJ  22238.25001157 -.00021755  00000-0 -13527-2 0  9992,2 52363  53.2156 236.6034 0002192  50.2384 307.6339 15.08843255 20816,6917.87,95.437,541.252,538.219,0.0
52363.0,STARLINK-3830,PAYLOAD,2022-08-26 14:00:01,15.08850954,0.0002205,53.2154,235.1067,48.1555,321.365,-0.0015617,-0.00025065,0.0,0 STARLINK-3830,1 52363U 22045AJ  22238.58335648 -.00025065  00000-0 -15617-2 0  9993,2 52363  53.2154 235.1067 0002205  48.1555 321.3650 15.08850954  1301,6917.847,95.437,541.237,538.187,0.0
52363.0,STARLINK-3830,PAYLOAD,2022-08-26 22:00:00,15.08819736,0.0002114,53.2155,233.6088,54.2397,326.8206,0.0026436999999999,0.00042015,0.0,0 STARLINK-3830,1 52363U 22045AJ  22238.91667824  .00042015  00000-0  26437-2 0  9998,2 52363  53.2155 233.6088 0002114  54.2397 326.8206 15.08819736  1309,6917.941999999999,95.439,541.27,538.345,0.0
52363.0,STARLINK-3830,PAYLOAD,2022-08-27 14:00:01,15.08859104,0.000231,53.2158,230.6173,49.2833,354.9589,-0.0016885,-0.00027075,0.0,0 STARLINK-3830,1 52363U 22045AJ  22239.58334491 -.00027075  00000-0 -16885-2 0  9990,2 52363  53.2158 230.6173 0002310  49.2833 354.9589 15.08859104  1300,6917.821999999999,95.436,541.285,538.089,0.0
52363.0,STARLINK-3830,PAYLOAD,2022-08-27 22:00:00,15.08831693,0.0002233,53.2161,229.1194,55.0329,0.8204,0.0024502,0.00038914,0.0,0 STARLINK-3830,1 52363U 22045AJ  22239.91667824  .00038914  00000-0  24502-2 0  9993,2 52363  53.2161 229.1194 0002233  55.0329   0.8204 15.08831693  1303,6917.906,95.438,541.316,538.226,0.0
52363.0,STARLINK-3830,PAYLOAD,2022-08-28 06:00:00,15.08857056,0.0002424999999999,53.2163,227.6247,51.8266,15.6301,-0.00092146,-0.00014931,0.0,0 STARLINK-3830,1 52363U 22045AJ  22240.25001157 -.00014931  00000-0 -92146-3 0  9998,2 52363  53.2163 227.6247 0002425  51.8266  15.6301 15.08857056 21129,6917.828,95.436,541.371,538.016,0.0
52363.0,STARLINK-3830,PAYLOAD,2022-08-28 14:00:01,15.0887158,0.0002400999999999,53.2165,226.1278,50.8272,28.2346,-0.0017021,-0.000273,0.0,0 STARLINK-3830,1 52363U 22045AJ  22240.58334491 -.00027300  00000-0 -17021-2 0  9996,2 52363  53.2165 226.1278 0002401  50.8272  28.2346 15.08871580  1304,6917.784000000002,95.436,541.31,537.988,0.0
52363.0,STARLINK-3830,PAYLOAD,2022-08-28 22:00:00,15.08857238,0.0002304,53.2169,224.63,55.7047,34.9778,0.00020119,2.917e-05,0.0,0 STARLINK-3830,1 52363U 22045AJ  22240.91667824  .00002917  00000-0  20119-3 0  9990,2 52363  53.2169 224.6300 0002304  55.7047  34.9778 15.08857238 21223,6917.828,95.436,541.2869999999998,538.099,0.0
